NORAD_CAT_ID,OBJECT_NAME,OBJECT_TYPE,EPOCH,MEAN_MOTION,ECCENTRICITY,INCLINATION,RA_OF_ASC_NODE,ARG_OF_PERICENTER,MEAN_ANOMALY,BSTAR,MEAN_MOTION_DOT,MEAN_MOTION_DDOT,TLE_LINE0,TLE_LINE1,TLE_LINE2,SEMIMAJOR_AXIS,PERIOD,APOGEE,PERIGEE,DECAYED
52472.0,STARLINK-3881,PAYLOAD,2023-10-29 09:24:48,15.08861794,0.0001648,53.2179,330.1283,85.4228,274.6952,0.00019614,2.837e-05,0.0,0 STARLINK-3881,1 52472U 22049X   23302.39222863  .00002837  00000-0  19614-3 0  9996,2 52472  53.2179 330.1283 0001648  85.4228 274.6952 15.08861794 82236,6917.814,95.436,540.819,538.539,0.0
52472.0,STARLINK-3881,PAYLOAD,2023-10-29 18:57:07,15.08855232,0.0001488,53.2178,328.3432,91.3646,268.7517,0.00013762,1.904e-05,0.0,0 STARLINK-3881,1 52472U 22049X   23302.78967082  .00001904  00000-0  13762-3 0  9990,2 52472  53.2178 328.3432 0001488  91.3646 268.7517 15.08855232 82299,6917.834,95.437,540.728,538.669,0.0
52472.0,STARLINK-3881,PAYLOAD,2023-10-29 23:43:18,15.08824088,0.0001455,53.2179,327.4526,90.6803,269.4356,0.00036944,5.594e-05,0.0,0 STARLINK-3881,1 52472U 22049X   23302.98840814  .00005594  00000-0  36944-3 0  9991,2 52472  53.2179 327.4526 0001455  90.6803 269.4356 15.08824088 82323,6917.929,95.439,540.801,538.787,0.0
52472.0,STARLINK-3881,PAYLOAD,2023-10-30 10:50:59,15.0885058,0.0001531,53.216,325.3693,86.9832,273.1336,0.00048281,7.406e-05,0.0,0 STARLINK-3881,1 52472U 22049X   23303.45208097  .00007406  00000-0  48281-3 0  9996,2 52472  53.2160 325.3693 0001531  86.9832 273.1336 15.08850580 82393,6917.848,95.437,540.772,538.654,0.0
52472.0,STARLINK-3881,PAYLOAD,2023-10-30 18:47:56,15.08836276,0.0001922,53.217,323.8836,80.9102,279.2108,0.00015034,2.105e-05,0.0,0 STARLINK-3881,1 52472U 22049X   23303.78328952  .00002105  00000-0  15034-3 0  9996,2 52472  53.2170 323.8836 0001922  80.9102 279.2108 15.08836276 82440,6917.892,95.438,541.086,538.427,0.0
52472.0,STARLINK-3881,PAYLOAD,2023-10-31 01:09:28,15.08846252,0.0002034,53.2174,322.6944,77.662,282.46,-0.00014168,-2.543e-05,0.0,0 STARLINK-3881,1 52472U 22049X   23304.04824329 -.00002543  00000-0 -14168-3 0  9990,2 52472  53.2174 322.6944 0002034  77.6620 282.4600 15.08846252 82486,6917.861,95.437,541.133,538.319,0.0
52472.0,STARLINK-3881,PAYLOAD,2023-10-31 09:06:23,15.08845343,0.0001852,53.2172,321.2072,77.7837,282.3363,-0.00016997,-2.993e-05,0.0,0 STARLINK-3881,1 52472U 22049X   23304.37944245 -.00002993  00000-0 -16997-3 0  9997,2 52472  53.2172 321.2072 0001852  77.7837 282.3363 15.08845343 82372,6917.864,95.437,541.01,538.448,0.0
52472.0,STARLINK-3881,PAYLOAD,2023-10-31 18:38:42,15.08845644,0.000176,53.2175,319.4229,82.907,277.2122,1.713e-05,-1.5e-07,0.0,0 STARLINK-3881,1 52472U 22049X   23304.77688163 -.00000015  00000-0  17130-4 0  9998,2 52472  53.2175 319.4229 0001760  82.9070 277.2122 15.08845644 82430,6917.863,95.437,540.946,538.511,0.0
52472.0,STARLINK-3881,PAYLOAD,2023-11-01 07:21:47,15.08850891,0.000159,53.2161,317.0426,86.7658,273.3516,0.00030146,4.514e-05,0.0,0 STARLINK-3881,1 52472U 22049X   23305.30679901  .00004514  00000-0  30146-3 0  9996,2 52472  53.2161 317.0426 0001590  86.7658 273.3516 15.08850891 82673,6917.847,95.437,540.812,538.612,0.0
52472.0,STARLINK-3881,PAYLOAD,2023-11-02 04:01:48,15.08846317,0.0001623,53.2161,313.1771,74.4959,285.6212,0.0002685,3.988e-05,0.0,0 STARLINK-3881,1 52472U 22049X   23306.16792147  .00003988  00000-0  26850-3 0  9990,2 52472  53.2161 313.1771 0001623  74.4959 285.6212 15.08846317 82800,6917.861,95.437,540.849,538.603,0.0
52472.0,STARLINK-3881,PAYLOAD,2023-11-02 10:23:20,15.08852517,0.0001608,53.2165,311.9857,93.609,266.5086,0.00028846,4.307e-05,0.0,0 STARLINK-3881,1 52472U 22049X   23306.43287649  .00004307  00000-0  28846-3 0  9999,2 52472  53.2165 311.9857 0001608  93.6090 266.5086 15.08852517 82689,6917.842,95.437,540.82,538.595,0.0
52472.0,STARLINK-3881,PAYLOAD,2023-11-03 03:52:35,15.08841632,0.0001884,53.2162,308.7131,106.6688,253.4511,5.5805e-05,6e-06,0.0,0 STARLINK-3881,1 52472U 22049X   23307.16152014  .00000600  00000-0  55805-4 0  9995,2 52472  53.2162 308.7131 0001884 106.6688 253.4511 15.08841632 82953,6917.875,95.437,541.044,538.437,0.0
52472.0,STARLINK-3881,PAYLOAD,2023-11-03 07:03:21,15.08842005,0.0001725,53.2168,308.1216,92.4351,267.6838,0.00016319,2.31e-05,0.0,0 STARLINK-3881,1 52472U 22049X   23307.29400133  .00002310  00000-0  16319-3 0  9993,2 52472  53.2168 308.1216 0001725  92.4351 267.6838 15.08842005 82819,6917.874,95.437,540.933,538.546,0.0
52472.0,STARLINK-3881,PAYLOAD,2023-11-04 06:54:08,15.08850045,0.0001629,53.2164,303.6615,89.2534,270.8645,0.00042768,6.527e-05,0.0,0 STARLINK-3881,1 52472U 22049X   23308.28760137  .00006527  00000-0  42768-3 0  9997,2 52472  53.2164 303.6615 0001629  89.2534 270.8645 15.08850045 83128,6917.85,95.437,540.842,538.588,0.0
52472.0,STARLINK-3881,PAYLOAD,2023-11-04 16:26:27,15.08840478,0.0001695,53.2169,301.8765,93.4072,266.7114,0.00038948,5.916e-05,0.0,0 STARLINK-3881,1 52472U 22049X   23308.68504361  .00005916  00000-0  38948-3 0  9992,2 52472  53.2169 301.8765 0001695  93.4072 266.7114 15.08840478 83186,6917.879,95.438,540.917,538.571,0.0
52472.0,STARLINK-3881,PAYLOAD,2023-11-05 05:09:32,15.08849327,0.0001849,53.2165,299.5015,112.0864,248.0324,0.00032461,4.883e-05,0.0,0 STARLINK-3881,1 52472U 22049X   23309.21496157  .00004883  00000-0  32461-3 0  9991,2 52472  53.2165 299.5015 0001849 112.0864 248.0324 15.08849327 83101,6917.852,95.437,540.996,538.438,0.0
52472.0,STARLINK-3881,PAYLOAD,2023-11-06 03:24:55,15.08866017,0.0001736,53.2157,295.3349,112.1078,248.0099,0.00061277,9.485e-05,0.0,0 STARLINK-3881,1 52472U 22049X   23310.14231379  .00009485  00000-0  61277-3 0  9998,2 52472  53.2157 295.3349 0001736 112.1078 248.0099 15.08866017 83406,6917.801,95.436,540.867,538.465,0.0
52472.0,STARLINK-3881,PAYLOAD,2023-11-06 08:11:05,15.08879601,0.0001653,53.2154,294.4406,90.9825,269.1357,0.0012352,0.00019446,0.0,0 STARLINK-3881,1 52472U 22049X   23310.34103149  .00019446  00000-0  12352-2 0  9990,2 52472  53.2154 294.4406 0001653  90.9825 269.1357 15.08879601 83277,6917.759,95.435,540.768,538.481,0.0
52472.0,STARLINK-3881,PAYLOAD,2023-11-07 03:15:43,15.0882462,0.0001415,53.2149,290.8791,101.8187,258.2964,-2.6262e-05,-7.06e-06,0.0,0 STARLINK-3881,1 52472U 22049X   23311.13592405 -.00000706  00000-0 -26262-4 0  9993,2 52472  53.2149 290.8791 0001415 101.8187 258.2964 15.08824620 83552,6917.927,95.439,540.771,538.814,0.0
52472.0,STARLINK-3881,PAYLOAD,2023-11-07 08:01:53,15.08828286,0.000144,53.215,289.9787,85.4996,274.616,0.00016201,2.291e-05,0.0,0 STARLINK-3881,1 52472U 22049X   23311.33464528  .00002291  00000-0  16201-3 0  9999,2 52472  53.2150 289.9787 0001440  85.4996 274.6160 15.08828286 83429,6917.916,95.438,540.777,538.785,0.0
52472.0,STARLINK-3881,PAYLOAD,2023-11-08 04:41:54,15.08846847,9.17e-05,53.2152,286.1208,90.3818,269.7279,0.0012427,0.00019549,0.0,0 STARLINK-3881,1 52472U 22049X   23312.19576914  .00019549  00000-0  12427-2 0  9996,2 52472  53.2152 286.1208 0000917  90.3818 269.7279 15.08846847 83715,6917.859,95.437,540.359,539.09,0.0
52472.0,STARLINK-3881,PAYLOAD,2023-11-08 07:52:40,15.08854726,0.0001439,53.2153,285.5185,104.4935,255.6217,0.0011399,0.00017907,0.0,0 STARLINK-3881,1 52472U 22049X   23312.32824680  .00017907  00000-0  11399-2 0  9990,2 52472  53.2153 285.5185 0001439 104.4935 255.6217 15.08854726 83575,6917.835,95.437,540.696,538.705,0.0
52472.0,STARLINK-3881,PAYLOAD,2023-11-08 15:49:36,15.0884434,0.0001249,53.2151,284.0401,57.491,302.6203,0.00065238,0.00010111,0.0,0 STARLINK-3881,1 52472U 22049X   23312.65944940  .00010111  00000-0  65238-3 0  9990,2 52472  53.2151 284.0401 0001249  57.4910 302.6203 15.08844340 83789,6917.867,95.437,540.596,538.868,0.0
52472.0,STARLINK-3881,PAYLOAD,2023-11-09 04:32:41,15.0884971,0.0001263,53.2156,281.6605,74.0547,286.0584,0.00063932,9.904e-05,0.0,0 STARLINK-3881,1 52472U 22049X   23313.18936849  .00009904  00000-0  63932-3 0  9995,2 52472  53.2156 281.6605 0001263  74.0547 286.0584 15.08849710 83705,6917.851,95.437,540.589,538.842,0.0
52472.0,STARLINK-3881,PAYLOAD,2023-11-10 04:23:28,15.08849762,0.0001454,53.216,277.195,90.4332,269.6827,0.00030866,4.629e-05,0.0,0 STARLINK-3881,1 52472U 22049X   23314.18296809  .00004629  00000-0  30866-3 0  9990,2 52472  53.2160 277.1950 0001454  90.4332 269.6827 15.08849762 84018,6917.851,95.437,540.721,538.71,0.0
52472.0,STARLINK-3881,PAYLOAD,2023-11-10 07:34:14,15.08854197,0.0001435,53.2168,276.6003,91.5425,268.5731,0.00043312,6.615e-05,0.0,0 STARLINK-3881,1 52472U 22049X   23314.31544667  .00006615  00000-0  43312-3 0  9990,2 52472  53.2168 276.6003 0001435  91.5425 268.5731 15.08854197 83876,6917.837,95.437,540.695,538.709,0.0
52472.0,STARLINK-3881,PAYLOAD,2023-11-11 02:38:52,15.08842148,0.0001505,53.2163,273.0304,89.7584,270.3581,0.00019357,2.794e-05,0.0,0 STARLINK-3881,1 52472U 22049X   23315.11033020  .00002794  00000-0  19357-3 0  9991,2 52472  53.2163 273.0304 0001505  89.7584 270.3581 15.08842148 84158,6917.874,95.437,540.78,538.698,0.0
52472.0,STARLINK-3881,PAYLOAD,2023-11-11 13:46:34,15.08846366,0.0001547,53.2166,270.946,91.8562,268.2608,7.559e-05,9.15e-06,0.0,0 STARLINK-3881,1 52472U 22049X   23315.57401034  .00000915  00000-0  75590-4 0  9990,2 52472  53.2166 270.9460 0001547  91.8562 268.2608 15.08846366 84068,6917.861,95.437,540.796,538.656,0.0
52472.0,STARLINK-3881,PAYLOAD,2023-11-11 21:43:30,15.08834094,0.0001566,53.2165,269.4596,98.1364,261.9806,0.00012107,1.639e-05,0.0,0 STARLINK-3881,1 52472U 22049X   23315.90521421  .00001639  00000-0  12107-3 0  9998,2 52472  53.2165 269.4596 0001566  98.1364 261.9806 15.08834094 84112,6917.898,95.438,540.847,538.68,0.0
52472.0,STARLINK-3881,PAYLOAD,2023-11-12 04:05:02,15.08844097,0.0001454,53.2154,268.2757,93.125,266.9909,0.00014389,2.003e-05,0.0,0 STARLINK-3881,1 52472U 22049X   23316.17017071  .00002003  00000-0  14389-3 0  9999,2 52472  53.2154 268.2757 0001454  93.1250 266.9909 15.08844097 84316,6917.868,95.437,540.739,538.727,0.0
